{
  "type": "FeatureCollection",
  "features": [
    {
      "type": "Feature",
      "properties": {
        "norad_id": 34754,
        "name": "COSMOS 2251 DEB",
        "group": "cosmos-2251-debris",
        "lat": 41.034981282249305,
        "lon": -145.6841739206728,
        "alt_km": 753.1487795503735,
        "timestamp": "2025-12-27T17:24:57.802825+00:00",
        "meta_object_name": "COSMOS 2251 DEB",
        "meta_object_id": "1993-036ZY",
        "meta_epoch": "2025-12-27T01:17:47.768640",
        "meta_mean_motion": 14.40501325,
        "meta_eccentricity": 0.00300619,
        "meta_inclination": 74.0288,
        "meta_ra_of_asc_node": 201.1242,
        "meta_arg_of_pericenter": 314.5632,
        "meta_mean_anomaly": 206.633,
        "meta_ephemeris_type": 0,
        "meta_classification_type": "U",
        "meta_norad_cat_id": 34754,
        "meta_element_set_no": 999,
        "meta_rev_at_epoch": 88339,
        "meta_bstar": 0.00023241228,
        "meta_mean_motion_dot": 7.17e-06,
        "meta_mean_motion_ddot": 0,
        "tle_line1": "1 34754U 93036ZY  25361.05402510  .00000717  00000+0  23241-3 0  9997",
        "tle_line2": "2 34754  74.0288 201.1242 0030061 314.5632 206.6330 14.40501325883396"
      },
      "geometry": {
        "type": "Point",
        "coordinates": [
          -145.6841739206728,
          41.034981282249305
        ]
      }
    },
    {
      "type": "Feature",
      "properties": {
        "norad_id": 34755,
        "name": "COSMOS 2251 DEB",
        "group": "cosmos-2251-debris",
        "lat": -10.957689572734528,
        "lon": -97.26247505783674,
        "alt_km": 938.2742840253386,
        "timestamp": "2025-12-27T17:24:57.802836+00:00",
        "meta_object_name": "COSMOS 2251 DEB",
        "meta_object_id": "1993-036ZZ",
        "meta_epoch": "2025-12-27T04:03:28.875744",
        "meta_mean_motion": 13.50582602,
        "meta_eccentricity": 0.04078114,
        "meta_inclination": 73.925,
        "meta_ra_of_asc_node": 266.832,
        "meta_arg_of_pericenter": 284.1121,
        "meta_mean_anomaly": 235.2158,
        "meta_ephemeris_type": 0,
        "meta_classification_type": "U",
        "meta_norad_cat_id": 34755,
        "meta_element_set_no": 999,
        "meta_rev_at_epoch": 82718,
        "meta_bstar": 0.00075894635,
        "meta_mean_motion_dot": 7.94e-06,
        "meta_mean_motion_ddot": 0,
        "tle_line1": "1 34755U 93036ZZ  25361.16908421  .00000794  00000+0  75895-3 0  9999",
        "tle_line2": "2 34755  73.9250 266.8320 0407811 284.1121 235.2158 13.50582602827183"
      },
      "geometry": {
        "type": "Point",
        "coordinates": [
          -97.26247505783674,
          -10.957689572734528
        ]
      }
    },
    {
      "type": "Feature",
      "properties": {
        "norad_id": 34756,
        "name": "COSMOS 2251 DEB",
        "group": "cosmos-2251-debris",
        "lat": 67.11748872825972,
        "lon": 122.5416714036287,
        "alt_km": 1128.0535788126908,
        "timestamp": "2025-12-27T17:24:57.802846+00:00",
        "meta_object_name": "COSMOS 2251 DEB",
        "meta_object_id": "1993-036AAA",
        "meta_epoch": "2025-12-27T11:47:35.563776",
        "meta_mean_motion": 13.6728277,
        "meta_eccentricity": 0.0346183,
        "meta_inclination": 74.0033,
        "meta_ra_of_asc_node": 80.1094,
        "meta_arg_of_pericenter": 312.7651,
        "meta_mean_anomaly": 44.4809,
        "meta_ephemeris_type": 0,
        "meta_classification_type": "U",
        "meta_norad_cat_id": 34756,
        "meta_element_set_no": 999,
        "meta_rev_at_epoch": 83623,
        "meta_bstar": 0.0012852,
        "meta_mean_motion_dot": 1.61e-05,
        "meta_mean_motion_ddot": 0,
        "tle_line1": "1 34756U 93036AAA 25361.49138384  .00001610  00000+0  12852-2 0  9990",
        "tle_line2": "2 34756  74.0033  80.1094 0346183 312.7651  44.4809 13.67282770836230"
      },
      "geometry": {
        "type": "Point",
        "coordinates": [
          122.5416714036287,
          67.11748872825972
        ]
      }
    },
    {
      "type": "Feature",
      "properties": {
        "norad_id": 34758,
        "name": "COSMOS 2251 DEB",
        "group": "cosmos-2251-debris",
        "lat": 46.78093070816678,
        "lon": -66.9727524214257,
        "alt_km": 761.537070503091,
        "timestamp": "2025-12-27T17:24:57.802856+00:00",
        "meta_object_name": "COSMOS 2251 DEB",
        "meta_object_id": "1993-036AAC",
        "meta_epoch": "2025-12-27T04:49:01.915968",
        "meta_mean_motion": 13.58126392,
        "meta_eccentricity": 0.0382625,
        "meta_inclination": 74.107,
        "meta_ra_of_asc_node": 276.2231,
        "meta_arg_of_pericenter": 36.5762,
        "meta_mean_anomaly": 326.0831,
        "meta_ephemeris_type": 0,
        "meta_classification_type": "U",
        "meta_norad_cat_id": 34758,
        "meta_element_set_no": 999,
        "meta_rev_at_epoch": 83106,
        "meta_bstar": 0.0019438,
        "meta_mean_motion_dot": 2.251e-05,
        "meta_mean_motion_ddot": 0,
        "tle_line1": "1 34758U 93036AAC 25361.20071662  .00002251  00000+0  19438-2 0  9995",
        "tle_line2": "2 34758  74.1070 276.2231 0382625  36.5762 326.0831 13.58126392831067"
      },
      "geometry": {
        "type": "Point",
        "coordinates": [
          -66.9727524214257,
          46.78093070816678
        ]
      }
    },
    {
      "type": "Feature",
      "properties": {
        "norad_id": 34760,
        "name": "COSMOS 2251 DEB",
        "group": "cosmos-2251-debris",
        "lat": 13.378704321731117,
        "lon": -80.48720698141852,
        "alt_km": 781.5351006251294,
        "timestamp": "2025-12-27T17:24:57.802867+00:00",
        "meta_object_name": "COSMOS 2251 DEB",
        "meta_object_id": "1993-036AAE",
        "meta_epoch": "2025-12-26T11:28:08.253120",
        "meta_mean_motion": 14.1960414,
        "meta_eccentricity": 0.009732,
        "meta_inclination": 74.0632,
        "meta_ra_of_asc_node": 277.842,
        "meta_arg_of_pericenter": 326.9633,
        "meta_mean_anomaly": 151.7947,
        "meta_ephemeris_type": 0,
        "meta_classification_type": "U",
        "meta_norad_cat_id": 34760,
        "meta_element_set_no": 999,
        "meta_rev_at_epoch": 86883,
        "meta_bstar": 0.00062411,
        "meta_mean_motion_dot": 1.356e-05,
        "meta_mean_motion_ddot": 0,
        "tle_line1": "1 34760U 93036AAE 25360.47787330  .00001356  00000+0  62411-3 0  9997",
        "tle_line2": "2 34760  74.0632 277.8420 0097320 326.9633 151.7947 14.19604140868834"
      },
      "geometry": {
        "type": "Point",
        "coordinates": [
          -80.48720698141852,
          13.378704321731117
        ]
      }
    },
    {
      "type": "Feature",
      "properties": {
        "norad_id": 34761,
        "name": "COSMOS 2251 DEB",
        "group": "cosmos-2251-debris",
        "lat": -28.369720041488723,
        "lon": 164.0698077851789,
        "alt_km": 794.438370443343,
        "timestamp": "2025-12-27T17:24:57.802877+00:00",
        "meta_object_name": "COSMOS 2251 DEB",
        "meta_object_id": "1993-036AAF",
        "meta_epoch": "2025-12-27T04:45:27.396864",
        "meta_mean_motion": 14.38105153,
        "meta_eccentricity": 0.00371853,
        "meta_inclination": 74.0287,
        "meta_ra_of_asc_node": 336.1447,
        "meta_arg_of_pericenter": 6.3825,
        "meta_mean_anomaly": 353.7795,
        "meta_ephemeris_type": 0,
        "meta_classification_type": "U",
        "meta_norad_cat_id": 34761,
        "meta_element_set_no": 999,
        "meta_rev_at_epoch": 87857,
        "meta_bstar": 0.00080983282,
        "meta_mean_motion_dot": 2.449e-05,
        "meta_mean_motion_ddot": 0,
        "tle_line1": "1 34761U 93036AAF 25361.19823376  .00002449  00000+0  80983-3 0  9997",
        "tle_line2": "2 34761  74.0287 336.1447 0037185   6.3825 353.7795 14.38105153878572"
      },
      "geometry": {
        "type": "Point",
        "coordinates": [
          164.0698077851789,
          -28.369720041488723
        ]
      }
    },
    {
      "type": "Feature",
      "properties": {
        "norad_id": 34784,
        "name": "COSMOS 2251 DEB",
        "group": "cosmos-2251-debris",
        "lat": -44.42362207229727,
        "lon": 131.9959365628377,
        "alt_km": 717.1058664955008,
        "timestamp": "2025-12-27T17:24:57.802887+00:00",
        "meta_object_name": "COSMOS 2251 DEB",
        "meta_object_id": "1993-036AAM",
        "meta_epoch": "2025-12-26T05:52:17.900832",
        "meta_mean_motion": 14.60839983,
        "meta_eccentricity": 0.0049103,
        "meta_inclination": 74.0077,
        "meta_ra_of_asc_node": 298.5051,
        "meta_arg_of_pericenter": 103.7988,
        "meta_mean_anomaly": 256.8649,
        "meta_ephemeris_type": 0,
        "meta_classification_type": "U",
        "meta_norad_cat_id": 34784,
        "meta_element_set_no": 999,
        "meta_rev_at_epoch": 88732,
        "meta_bstar": 0.00052479,
        "meta_mean_motion_dot": 2.579e-05,
        "meta_mean_motion_ddot": 0,
        "tle_line1": "1 34784U 93036AAM 25360.24465163  .00002579  00000+0  52479-3 0  9996",
        "tle_line2": "2 34784  74.0077 298.5051 0049103 103.7988 256.8649 14.60839983887325"
      },
      "geometry": {
        "type": "Point",
        "coordinates": [
          131.9959365628377,
          -44.42362207229727
        ]
      }
    }
  ]
}